GLOBALSTAR M001         
1 25162U 98008A   25106.62711598 -.00000038  00000+0  45162-3 0  9996
2 25162  52.0011 152.4004 0001744 126.3743  43.4332 12.38212897236198
GLOBALSTAR M004         
1 25163U 98008B   25106.86474095 -.00000057  00000+0  25818-3 0  9998
2 25163  51.9995 241.2308 0003684 147.7330  23.6247 12.63393726253931
GLOBALSTAR M002         
1 25164U 98008C   25106.80637914 -.00000060  00000+0  33135-3 0  9999
2 25164  52.0044  34.1029 0001867  41.1288 318.9673 11.61509098176933
GLOBALSTAR M003         
1 25165U 98008D   25106.93967481 -.00000063  00000+0  28185-3 0  9991
2 25165  52.0029 338.1519 0008137 165.0238 296.4320 12.12076557225790
GLOBALSTAR M014         
1 25306U 98023A   25106.89801737 -.00000044  00000+0  63703-3 0  9995
2 25306  51.9855 318.3918 0000418 196.8781 265.4498 11.65479649184022
GLOBALSTAR M006         
1 25307U 98023B   25106.94396051 -.00000040  00000+0  73922-3 0  9990
2 25307  51.9985   8.4564 0003504   3.9823  79.5334 11.58174330209735
